{
  "type": "FeatureCollection",
  "features": [
    {
      "type": "Feature",
      "properties": {
        "norad_id": 66623,
        "name": "STARLINK-35920",
        "group": "last-30-days",
        "lat": -44.68770206200744,
        "lon": 102.64218780388903,
        "alt_km": 452.3920591179922,
        "timestamp": "2025-12-20T11:30:27.104050+00:00",
        "meta_object_name": "STARLINK-35920",
        "meta_object_id": "2025-271G",
        "meta_epoch": "2025-12-20T00:00:02.000160",
        "meta_mean_motion": 15.39609547,
        "meta_eccentricity": 0.0001114,
        "meta_inclination": 53.1601,
        "meta_ra_of_asc_node": 152.7686,
        "meta_arg_of_pericenter": 79.6665,
        "meta_mean_anomaly": 79.9296,
        "meta_ephemeris_type": 0,
        "meta_classification_type": "U",
        "meta_norad_cat_id": 66623,
        "meta_element_set_no": 999,
        "meta_rev_at_epoch": 541,
        "meta_bstar": 0.00041204,
        "meta_mean_motion_dot": 0.00016111,
        "meta_mean_motion_ddot": 0,
        "tle_line1": "1 66623U 25271G   25354.00002315  .00016111  00000+0  41204-3 0  9993",
        "tle_line2": "2 66623  53.1601 152.7686 0001114  79.6665  79.9296 15.39609547  5413"
      },
      "geometry": {
        "type": "Point",
        "coordinates": [
          102.64218780388903,
          -44.68770206200744
        ]
      }
    },
    {
      "type": "Feature",
      "properties": {
        "norad_id": 66624,
        "name": "STARLINK-35927",
        "group": "last-30-days",
        "lat": 52.5817221161393,
        "lon": -131.26172218358545,
        "alt_km": 420.5798799402719,
        "timestamp": "2025-12-20T11:30:27.104061+00:00",
        "meta_object_name": "STARLINK-35927",
        "meta_object_id": "2025-271H",
        "meta_epoch": "2025-12-19T22:44:25.582848",
        "meta_mean_motion": 15.46532201,
        "meta_eccentricity": 8.49e-05,
        "meta_inclination": 53.159,
        "meta_ra_of_asc_node": 152.7553,
        "meta_arg_of_pericenter": 106.2501,
        "meta_mean_anomaly": 253.86,
        "meta_ephemeris_type": 0,
        "meta_classification_type": "U",
        "meta_norad_cat_id": 66624,
        "meta_element_set_no": 999,
        "meta_rev_at_epoch": 532,
        "meta_bstar": -0.0084107,
        "meta_mean_motion_dot": -0.00403682,
        "meta_mean_motion_ddot": 0,
        "tle_line1": "1 66624U 25271H   25353.94751832 -.00403682  00000+0 -84107-2 0  9994",
        "tle_line2": "2 66624  53.1590 152.7553 0000849 106.2501 253.8600 15.46532201  5326"
      },
      "geometry": {
        "type": "Point",
        "coordinates": [
          -131.26172218358545,
          52.5817221161393
        ]
      }
    },
    {
      "type": "Feature",
      "properties": {
        "norad_id": 66625,
        "name": "STARLINK-35929",
        "group": "last-30-days",
        "lat": 32.01538292038791,
        "lon": 178.25866190782344,
        "alt_km": 442.953791432923,
        "timestamp": "2025-12-20T11:30:27.104071+00:00",
        "meta_object_name": "STARLINK-35929",
        "meta_object_id": "2025-271J",
        "meta_epoch": "2025-12-20T04:00:00.999072",
        "meta_mean_motion": 15.396071,
        "meta_eccentricity": 7.49e-05,
        "meta_inclination": 53.1589,
        "meta_ra_of_asc_node": 151.7783,
        "meta_arg_of_pericenter": 89.9632,
        "meta_mean_anomaly": 16.8991,
        "meta_ephemeris_type": 0,
        "meta_classification_type": "U",
        "meta_norad_cat_id": 66625,
        "meta_element_set_no": 999,
        "meta_rev_at_epoch": 543,
        "meta_bstar": 0.0002241,
        "meta_mean_motion_dot": 8.571e-05,
        "meta_mean_motion_ddot": 0,
        "tle_line1": "1 66625U 25271J   25354.16667823  .00008571  00000+0  22410-3 0  9992",
        "tle_line2": "2 66625  53.1589 151.7783 0000749  89.9632  16.8991 15.39607100  5435"
      },
      "geometry": {
        "type": "Point",
        "coordinates": [
          178.25866190782344,
          32.01538292038791
        ]
      }
    },
    {
      "type": "Feature",
      "properties": {
        "norad_id": 66626,
        "name": "STARLINK-35902",
        "group": "last-30-days",
        "lat": -27.896245147847186,
        "lon": 127.07347613261078,
        "alt_km": 451.3445778832411,
        "timestamp": "2025-12-20T11:30:27.104082+00:00",
        "meta_object_name": "STARLINK-35902",
        "meta_object_id": "2025-271K",
        "meta_epoch": "2025-12-20T04:00:00.999072",
        "meta_mean_motion": 15.39618729,
        "meta_eccentricity": 0.0001342,
        "meta_inclination": 53.1601,
        "meta_ra_of_asc_node": 151.9317,
        "meta_arg_of_pericenter": 80.2674,
        "meta_mean_anomaly": 309.3215,
        "meta_ephemeris_type": 0,
        "meta_classification_type": "U",
        "meta_norad_cat_id": 66626,
        "meta_element_set_no": 999,
        "meta_rev_at_epoch": 543,
        "meta_bstar": 5.7166e-05,
        "meta_mean_motion_dot": 1.888e-05,
        "meta_mean_motion_ddot": 0,
        "tle_line1": "1 66626U 25271K   25354.16667823  .00001888  00000+0  57166-4 0  9994",
        "tle_line2": "2 66626  53.1601 151.9317 0001342  80.2674 309.3215 15.39618729  5434"
      },
      "geometry": {
        "type": "Point",
        "coordinates": [
          127.07347613261078,
          -27.896245147847186
        ]
      }
    },
    {
      "type": "Feature",
      "properties": {
        "norad_id": 66627,
        "name": "STARLINK-35904",
        "group": "last-30-days",
        "lat": 12.509890275673987,
        "lon": 159.9304832981318,
        "alt_km": 446.1452112061206,
        "timestamp": "2025-12-20T11:30:27.104097+00:00",
        "meta_object_name": "STARLINK-35904",
        "meta_object_id": "2025-271L",
        "meta_epoch": "2025-12-20T04:00:00.999072",
        "meta_mean_motion": 15.39613256,
        "meta_eccentricity": 8.76e-05,
        "meta_inclination": 53.1591,
        "meta_ra_of_asc_node": 151.8292,
        "meta_arg_of_pericenter": 81.9222,
        "meta_mean_anomaly": 359.1702,
        "meta_ephemeris_type": 0,
        "meta_classification_type": "U",
        "meta_norad_cat_id": 66627,
        "meta_element_set_no": 999,
        "meta_rev_at_epoch": 527,
        "meta_bstar": 8.5588e-05,
        "meta_mean_motion_dot": 3.025e-05,
        "meta_mean_motion_ddot": 0,
        "tle_line1": "1 66627U 25271L   25354.16667823  .00003025  00000+0  85588-4 0  9999",
        "tle_line2": "2 66627  53.1591 151.8292 0000876  81.9222 359.1702 15.39613256  5278"
      },
      "geometry": {
        "type": "Point",
        "coordinates": [
          159.9304832981318,
          12.509890275673987
        ]
      }
    },
    {
      "type": "Feature",
      "properties": {
        "norad_id": 66628,
        "name": "STARLINK-35862",
        "group": "last-30-days",
        "lat": 53.05636658264096,
        "lon": -115.3440753710486,
        "alt_km": 419.5659323185746,
        "timestamp": "2025-12-20T11:30:27.104110+00:00",
        "meta_object_name": "STARLINK-35862",
        "meta_object_id": "2025-271M",
        "meta_epoch": "2025-12-19T22:41:57.757632",
        "meta_mean_motion": 15.46540943,
        "meta_eccentricity": 0.0002224,
        "meta_inclination": 53.1592,
        "meta_ra_of_asc_node": 152.7424,
        "meta_arg_of_pericenter": 62.1747,
        "meta_mean_anomaly": 297.9486,
        "meta_ephemeris_type": 0,
        "meta_classification_type": "U",
        "meta_norad_cat_id": 66628,
        "meta_element_set_no": 999,
        "meta_rev_at_epoch": 532,
        "meta_bstar": -0.0077533,
        "meta_mean_motion_dot": -0.00373781,
        "meta_mean_motion_ddot": 0,
        "tle_line1": "1 66628U 25271M   25353.94580738 -.00373781  00000+0 -77533-2 0  9994",
        "tle_line2": "2 66628  53.1592 152.7424 0002224  62.1747 297.9486 15.46540943  5323"
      },
      "geometry": {
        "type": "Point",
        "coordinates": [
          -115.3440753710486,
          53.05636658264096
        ]
      }
    },
    {
      "type": "Feature",
      "properties": {
        "norad_id": 66629,
        "name": "STARLINK-35956",
        "group": "last-30-days",
        "lat": 50.23047164741297,
        "lon": -94.09626973067984,
        "alt_km": 411.1146886462211,
        "timestamp": "2025-12-20T11:30:27.104123+00:00",
        "meta_object_name": "STARLINK-35956",
        "meta_object_id": "2025-271N",
        "meta_epoch": "2025-12-18T16:00:00.999936",
        "meta_mean_motion": 15.49463337,
        "meta_eccentricity": 5.424e-05,
        "meta_inclination": 53.1591,
        "meta_ra_of_asc_node": 158.846,
        "meta_arg_of_pericenter": 63.7637,
        "meta_mean_anomaly": 4.4961,
        "meta_ephemeris_type": 0,
        "meta_classification_type": "U",
        "meta_norad_cat_id": 66629,
        "meta_element_set_no": 999,
        "meta_rev_at_epoch": 519,
        "meta_bstar": 0.0002238515,
        "meta_mean_motion_dot": 0.00012088,
        "meta_mean_motion_ddot": 0,
        "tle_line1": "1 66629U 25271N   25352.66667824  .00012088  00000+0  22385-3 0  9999",
        "tle_line2": "2 66629  53.1591 158.8460 0000542  63.7637   4.4961 15.49463337  5194"
      },
      "geometry": {
        "type": "Point",
        "coordinates": [
          -94.09626973067984,
          50.23047164741297
        ]
      }
    }
  ]
}